QZS-1R                  
1 49336U 21096A   23335.67688376 -.00000251  00000+0  00000+0 0  9997
2 49336  35.5389  93.5642 0752058 270.8707  84.1209  1.00262734  7700
